SL-3 R/B                
1 19046U 88032B   26087.23108941  .00005783  00000+0  26851-3 0  9999
2 19046  97.5211  70.4220 0026270 165.3561 194.8441 15.20107803 54924
SL-16 R/B               
1 19120U 88039B   26087.23011955  .00000176  00000+0  10599-3 0  9990
2 19120  71.0166  29.3423 0023637 307.7783  52.1201 14.19618810961012
COSMOS 1953             
1 19210U 88050A   26087.21577947  .00007488  00000+0  26575-3 0  9993
2 19210  82.5083 139.6116 0012394  64.8657 295.3867 15.28807385 40611
SL-8 R/B                
1 19257U 88053B   26087.29691825  .00000366  00000+0  12718-3 0  9999
2 19257  74.0455  78.1640 0021480 254.9909 206.7632 14.38928686979275
COSMOS 1975             
1 19573U 88093A   26087.12438397  .00006913  00000+0  24890-3 0  9997
2 19573  82.5164  99.1720 0013379 104.4955 255.7770 15.28312271 22225
SL-14 R/B               
1 19574U 88093B   26087.26965789  .00000622  00000+0  68752-4 0  9990
2 19574  82.5338  24.6047 0020161 341.0034 178.4618 14.85678447  3771
SL-16 R/B               
1 19650U 88102B   26087.19933521 -.00000165  00000+0 -59344-4 0  9998
2 19650  70.9971 112.5510 0015084 333.8286  26.2073 14.16153627929514
INTERCOSMOS 24          
1 20261U 89080A   26087.31015449  .00000566  00000+0  16759-3 0  9993
2 20261  82.6011  92.2747 1186844 249.5606  97.4325 12.59581920669144
SL-14 R/B               
1 20262U 89080C   26087.28016693  .00000392  00000+0  10966-3 0  9993
2 20262  82.5956 161.2571 1230891 142.2771 227.1457 12.50511640662478
DELTA 1 R/B             
1 20323U 89089B   26087.17522096  .00000350  00000+0  94906-4 0  9998
2 20323  97.0693 291.6716 0070543  64.7375 296.1112 14.50677863898418
ARIANE 40 R/B           
1 20443U 90005H   26087.15910978  .00000254  00000+0  94140-4 0  9992
2 20443  98.3045 147.2668 0010947 144.5330 215.6589 14.39882225895461
DELTA 2 R/B(1)          
1 20453U 90008B   26086.96792605  .00070325  00000+0  76859-3 0  9991
2 20453  35.6038  54.6827 0078041  69.6240 291.2859 15.58359382928981
